NORAD_CAT_ID,OBJECT_NAME,OBJECT_TYPE,EPOCH,MEAN_MOTION,ECCENTRICITY,INCLINATION,RA_OF_ASC_NODE,ARG_OF_PERICENTER,MEAN_ANOMALY,BSTAR,MEAN_MOTION_DOT,MEAN_MOTION_DDOT,TLE_LINE0,TLE_LINE1,TLE_LINE2,SEMIMAJOR_AXIS,PERIOD,APOGEE,PERIGEE,DECAYED
54052.0,STARLINK-5189,PAYLOAD,2024-08-12 18:12:30,15.08885452,0.000192,53.2173,0.4109,104.7529,255.3676,0.0013596,0.00021443,0.0,0 STARLINK-5189,1 54052U 22136B   24225.75868294  .00021443  00000-0  13596-2 0  9994,2 54052  53.2173   0.4109 0001920 104.7529 255.3676 15.08885452101252,6917.741,95.435,540.935,538.278,0.0
54052.0,STARLINK-5189,PAYLOAD,2024-08-13 02:09:27,15.08851476,0.0006327,53.2177,358.9244,89.6812,270.4905,0.00036073,5.46e-05,0.0,0 STARLINK-5189,1 54052U 22136B   24226.08990227  .00005460  00000-0  36073-3 0  9990,2 54052  53.2177 358.9244 0006327  89.6812 270.4905 15.08851476101307,6917.845,95.437,544.087,535.333,0.0
54052.0,STARLINK-5189,PAYLOAD,2024-08-13 14:00:01,15.08783439,0.0001393,53.2164,356.7126,90.1609,71.7732,-0.00066808,-0.00010888,0.0,0 STARLINK-5189,1 54052U 22136B   24226.58334491 -.00010888  00000-0 -66808-3 0  9991,2 54052  53.2164 356.7126 0001393  90.1609  71.7732 15.08783439101377,6918.053,95.441,540.882,538.955,0.0
54052.0,STARLINK-5189,PAYLOAD,2024-08-13 18:03:18,15.0881156,0.0001158,53.2173,355.9519,115.522,244.5891,-0.0008006,-0.00012997,0.0,0 STARLINK-5189,1 54052U 22136B   24226.75229910 -.00012997  00000-0 -80060-3 0  9998,2 54052  53.2173 355.9519 0001158 115.5220 244.5891 15.08811560100916,6917.967,95.439,540.633,539.031,0.0
54052.0,STARLINK-5189,PAYLOAD,2024-08-14 02:00:15,15.08808714,0.0001445,53.215,354.4648,116.0091,244.105,-0.00050002,-8.23e-05,0.0,0 STARLINK-5189,1 54052U 22136B   24227.08350987 -.00008230  00000-0 -50002-3 0  9992,2 54052  53.2150 354.4648 0001445 116.0091 244.1050 15.08808714101459,6917.976,95.44,540.841,538.841,0.0
54052.0,STARLINK-5189,PAYLOAD,2024-08-14 13:07:57,15.08825038,0.0001858,53.2168,352.3861,93.6428,266.4776,0.0001221,1.655e-05,0.0,0 STARLINK-5189,1 54052U 22136B   24227.54719472  .00001655  00000-0  12210-3 0  9992,2 54052  53.2168 352.3861 0001858  93.6428 266.4776 15.08825038101522,6917.926,95.439,541.076,538.506,0.0
54052.0,STARLINK-5189,PAYLOAD,2024-08-14 14:43:20,15.08825818,0.0001525,53.2151,352.0875,103.6071,256.5091,0.00017961,2.571e-05,0.0,0 STARLINK-5189,1 54052U 22136B   24227.61343448  .00002571  00000-0  17961-3 0  9992,2 54052  53.2151 352.0875 0001525 103.6071 256.5091 15.08825818101046,6917.924,95.438,540.844,538.734,0.0
54052.0,STARLINK-5189,PAYLOAD,2024-08-15 14:34:07,15.0885557,0.0001217,53.2154,347.6287,95.6083,264.5047,0.00081468,0.00012707,0.0,0 STARLINK-5189,1 54052U 22136B   24228.60703429  .00012707  00000-0  81468-3 0  9996,2 54052  53.2154 347.6287 0001217  95.6083 264.5047 15.08855570101191,6917.833,95.437,540.54,538.856,0.0
54052.0,STARLINK-5189,PAYLOAD,2024-08-15 16:09:30,15.08865881,0.0001278,53.2156,347.3313,94.6529,265.4609,0.0010753,0.00016879,0.0,0 STARLINK-5189,1 54052U 22136B   24228.67327224  .00016879  00000-0  10753-2 0  9990,2 54052  53.2156 347.3313 0001278  94.6529 265.4609 15.08865881101696,6917.801,95.436,540.55,538.782,0.0
54052.0,STARLINK-5189,PAYLOAD,2024-08-17 07:54:09,15.08854034,0.0001453,53.2173,339.896,107.3725,252.7426,0.00074172,0.00011541,0.0,0 STARLINK-5189,1 54052U 22136B   24230.32927578  .00011541  00000-0  74172-3 0  9990,2 54052  53.2173 339.8960 0001453 107.3725 252.7426 15.08854034101946,6917.837,95.437,540.708,538.697,0.0
54052.0,STARLINK-5189,PAYLOAD,2024-08-17 14:15:42,15.08842737,6.93e-05,53.2192,338.7085,76.6202,283.4868,0.00038821,5.896e-05,0.0,0 STARLINK-5189,1 54052U 22136B   24230.59423665  .00005896  00000-0  38821-3 0  9994,2 54052  53.2192 338.7085 0000693  76.6202 283.4868 15.08842737101988,6917.872,95.437,540.216,539.258,0.0
54052.0,STARLINK-5189,PAYLOAD,2024-08-18 14:06:28,15.08838392,0.0001422,53.2176,334.247,88.0396,272.0759,0.0017944,0.00028384,0.0,0 STARLINK-5189,1 54052U 22136B   24231.58783532  .00028384  00000-0  17944-2 0  9995,2 54052  53.2176 334.2470 0001422  88.0396 272.0759 15.08838392101649,6917.885,95.438,540.734,538.767,0.0
54052.0,STARLINK-5189,PAYLOAD,2024-08-19 10:46:29,15.0884254,0.000135,53.2166,330.3813,99.6883,260.4262,4.9637e-05,5.02e-06,0.0,0 STARLINK-5189,1 54052U 22136B   24232.44895078  .00000502  00000-0  49637-4 0  9998,2 54052  53.2166 330.3813 0001350  99.6883 260.4262 15.08842540102264,6917.873,95.437,540.672,538.804,0.0
54052.0,STARLINK-5189,PAYLOAD,2024-08-20 12:12:39,15.08846613,0.0001586,53.2167,325.6244,99.7728,260.3443,0.00023714,3.489e-05,0.0,0 STARLINK-5189,1 54052U 22136B   24233.50879036  .00003489  00000-0  23714-3 0  9996,2 54052  53.2167 325.6244 0001586  99.7728 260.3443 15.08846613102423,6917.86,95.437,540.822,538.628,0.0
54052.0,STARLINK-5189,PAYLOAD,2024-08-20 13:48:02,15.08848616,0.000163,53.2169,325.3271,83.0508,277.067,0.00037117,5.625e-05,0.0,0 STARLINK-5189,1 54052U 22136B   24233.57502913  .00005625  00000-0  37117-3 0  9996,2 54052  53.2169 325.3271 0001630  83.0508 277.0670 15.08848616101942,6917.854,95.437,540.847,538.591,0.0
54052.0,STARLINK-5189,PAYLOAD,2024-08-21 05:41:54,15.08834046,0.0001662,53.2159,322.3531,91.2016,268.9166,0.00014322,1.992e-05,0.0,0 STARLINK-5189,1 54052U 22136B   24234.23743844  .00001992  00000-0  14322-3 0  9996,2 54052  53.2159 322.3531 0001662  91.2016 268.9166 15.08834046102534,6917.899,95.438,540.913,538.614,0.0
54052.0,STARLINK-5189,PAYLOAD,2024-08-21 13:38:50,15.08833213,0.0001411,53.2157,320.8635,103.591,256.5239,0.0001907,2.748e-05,0.0,0 STARLINK-5189,1 54052U 22136B   24234.56864058  .00002748  00000-0  19070-3 0  9998,2 54052  53.2157 320.8635 0001411 103.5910 256.5239 15.08833213102092,6917.901,95.438,540.742,538.79,0.0
